COMMENT,ORIGINATOR,NORAD_CAT_ID,OBJECT_NAME,OBJECT_TYPE,CLASSIFICATION_TYPE,INTLDES,EPOCH,EPOCH_MICROSECONDS,MEAN_MOTION,ECCENTRICITY,INCLINATION,RA_OF_ASC_NODE,ARG_OF_PERICENTER,MEAN_ANOMALY,EPHEMERIS_TYPE,ELEMENT_SET_NO,REV_AT_EPOCH,BSTAR,MEAN_MOTION_DOT,MEAN_MOTION_DDOT,FILE,TLE_LINE0,TLE_LINE1,TLE_LINE2,OBJECT_ID,OBJECT_NUMBER,SEMIMAJOR_AXIS,PERIOD,APOGEE,PERIGEE,DECAYED
"GENERATED VIA SPACETRACK.ORG API","18 SPCS","48884","SPACEBEE-101","PAYLOAD","U","21059F","2022-05-24 21:39:19","87200","15.15254291","0.0008656","97.5509","274.6064","181.8309","178.2893","0","999","5036","0.00073525","0.00013787","0","3462783","0 SPACEBEE-101","1 48884U 21059F   22144.90230425  .00013787  00000-0  73525-3 0  9998","2 48884  97.5509 274.6064 0008656 181.8309 178.2893 15.15254291 50360","2021-059F","48884","6898.344","95.034","526.180","514.237","0"
"GENERATED VIA SPACETRACK.ORG API","18 SPCS","48884","SPACEBEE-101","PAYLOAD","U","21059F","2022-05-25 08:44:58","457472","15.15263522","0.0008681","97.5512","275.0655","180.1131","180.01","0","999","5043","0.00062034","0.00011622","0","3463429","0 SPACEBEE-101","1 48884U 21059F   22145.36456548  .00011622  00000-0  62034-3 0  9994","2 48884  97.5512 275.0655 0008681 180.1131 180.0100 15.15263522 50435","2021-059F","48884","6898.316","95.033","526.169","514.192","0"
"GENERATED VIA SPACETRACK.ORG API","18 SPCS","48884","SPACEBEE-101","PAYLOAD","U","21059F","2022-05-25 08:44:58","457472","15.15263522","0.0008681","97.5512","275.0655","180.1131","180.01","0","999","5043","0.00062034","0.00011622","0","3463908","0 SPACEBEE-101","1 48884U 21059F   22145.36456548  .00011622  00000-0  62034-3 0  9994","2 48884  97.5512 275.0655 0008681 180.1131 180.0100 15.15263522 50435","2021-059F","48884","6898.316","95.033","526.169","514.192","0"
"GENERATED VIA SPACETRACK.ORG API","18 SPCS","48884","SPACEBEE-101","PAYLOAD","U","21059F","2022-05-25 21:25:43","18464","15.15279002","0.000872","97.5512","275.5904","178.0284","182.0984","0","999","5051","0.00069591","0.00013054","0","3464394","0 SPACEBEE-101","1 48884U 21059F   22145.89285901  .00013054  00000-0  69591-3 0  9991","2 48884  97.5512 275.5904 0008720 178.0284 182.0984 15.15279002 50517","2021-059F","48884","6898.269","95.032","526.149","514.118","0"
"GENERATED VIA SPACETRACK.ORG API","18 SPCS","48884","SPACEBEE-101","PAYLOAD","U","21059F","2022-05-26 08:31:21","723456","15.15288577","0.0008727","97.5513","276.0496","176.1251","184.0051","0","999","5058","0.00060018","0.0001125","0","3465646","0 SPACEBEE-101","1 48884U 21059F   22146.35511254  .00011250  00000-0  60018-3 0  9997","2 48884  97.5513 276.0496 0008727 176.1251 184.0051 15.15288577 50581","2021-059F","48884","6898.240","95.031","526.125","514.085","0"
"GENERATED VIA SPACETRACK.ORG API","18 SPCS","48884","SPACEBEE-101","PAYLOAD","U","21059F","2022-05-27 08:17:43","830816","15.15306959","0.0008871","97.5514","277.0338","172.6465","187.4898","0","999","5073","0.00047372","0.00008867","0","3467087","0 SPACEBEE-101","1 48884U 21059F   22147.34564619  .00008867  00000-0  47372-3 0  9998","2 48884  97.5514 277.0338 0008871 172.6465 187.4898 15.15306959 50734","2021-059F","48884","6898.184","95.030","526.168","513.929","0"
"GENERATED VIA SPACETRACK.ORG API","18 SPCS","48884","SPACEBEE-101","PAYLOAD","U","21059F","2022-05-27 14:38:05","543232","15.15311633","0.0008874","97.5515","277.2962","171.9839","188.1537","0","999","5077","0.00048872","0.00009152","0","3467585","0 SPACEBEE-101","1 48884U 21059F   22147.60978638  .00009152  00000-0  48872-3 0  9991","2 48884  97.5515 277.2962 0008874 171.9839 188.1537 15.15311633 50777","2021-059F","48884","6898.170","95.030","526.156","513.913","0"
"GENERATED VIA SPACETRACK.ORG API","18 SPCS","48884","SPACEBEE-101","PAYLOAD","U","21059F","2022-05-27 20:58:27","140736","15.1532041","0.0008889","97.5515","277.5587","171.2895","188.8493","0","999","5081","0.0006188","0.00011612","0","3468079","0 SPACEBEE-101","1 48884U 21059F   22147.87392524  .00011612  00000-0  61880-3 0  9992","2 48884  97.5515 277.5587 0008889 171.2895 188.8493 15.15320410 50810","2021-059F","48884","6898.143","95.029","526.140","513.876","0"
"GENERATED VIA SPACETRACK.ORG API","18 SPCS","48884","SPACEBEE-101","PAYLOAD","U","21059F","2022-05-28 08:04:04","783008","15.15329303","0.0008922","97.5515","278.0179","169.9845","190.1567","0","999","5088","0.00058938","0.00011059","0","3469283","0 SPACEBEE-101","1 48884U 21059F   22148.33616647  .00011059  00000-0  58938-3 0  9994","2 48884  97.5515 278.0179 0008922 169.9845 190.1567 15.15329303 50885","2021-059F","48884","6898.116","95.029","526.136","513.827","0"
"GENERATED VIA SPACETRACK.ORG API","18 SPCS","48884","SPACEBEE-101","PAYLOAD","U","21059F","2022-05-28 20:44:47","450976","15.15338808","0.000895","97.5517","278.5428","168.6024","191.5412","0","999","5096","0.00050179","0.00009406","0","3469840","0 SPACEBEE-101","1 48884U 21059F   22148.86443809  .00009406  00000-0  50179-3 0  9992","2 48884  97.5517 278.5428 0008950 168.6024 191.5412 15.15338808 50968","2021-059F","48884","6898.087","95.028","526.126","513.778","0"
"GENERATED VIA SPACETRACK.ORG API","18 SPCS","48884","SPACEBEE-101","PAYLOAD","U","21059F","2022-05-29 03:05:08","677824","15.15343677","0.0008972","97.5521","278.8054","167.667","192.4784","0","999","5100","0.00048308","0.00009054","0","3469975","0 SPACEBEE-101","1 48884U 21059F   22149.12857266  .00009054  00000-0  48308-3 0  9998","2 48884  97.5521 278.8054 0008972 167.6670 192.4784 15.15343677 51009","2021-059F","48884","6898.072","95.028","526.126","513.748","0"
"GENERATED VIA SPACETRACK.ORG API","18 SPCS","48884","SPACEBEE-101","PAYLOAD","U","21059F","2022-05-29 07:50:24","542880","15.15347676","0.0008979","97.5522","279.0022","167.0909","193.0555","0","999","5103","0.00046315","0.00008678","0","3470904","0 SPACEBEE-101","1 48884U 21059F   22149.32667295  .00008678  00000-0  46315-3 0  9998","2 48884  97.5522 279.0022 0008979 167.0909 193.0555 15.15347676 51033","2021-059F","48884","6898.060","95.028","526.119","513.731","0"
"GENERATED VIA SPACETRACK.ORG API","18 SPCS","48884","SPACEBEE-101","PAYLOAD","U","21059F","2022-05-29 22:06:11","909088","15.15359039","0.0009007","97.5523","279.5927","165.4921","194.6572","0","999","5112","0.0004881","0.00009152","0","3471362","0 SPACEBEE-101","1 48884U 21059F   22149.92097117  .00009152  00000-0  48810-3 0  9994","2 48884  97.5523 279.5927 0009007 165.4921 194.6572 15.15359039 51124","2021-059F","48884","6898.026","95.027","526.104","513.678","0"
"GENERATED VIA SPACETRACK.ORG API","18 SPCS","48884","SPACEBEE-101","PAYLOAD","U","21059F","2022-05-30 07:36:43","336800","15.15364796","0.0009028","97.5525","279.9864","164.1196","196.0321","0","999","5118","0.00045062","0.00008445","0","3472036","0 SPACEBEE-101","1 48884U 21059F   22150.31716825  .00008445  00000-0  45062-3 0  9993","2 48884  97.5525 279.9864 0009028 164.1196 196.0321 15.15364796 51183","2021-059F","48884","6898.008","95.027","526.101","513.646","0"
"GENERATED VIA SPACETRACK.ORG API","18 SPCS","48884","SPACEBEE-101","PAYLOAD","U","21059F","2022-05-30 07:36:43","336800","15.15364796","0.0009028","97.5525","279.9864","164.1196","196.0321","0","999","5118","0.00045062","0.00008445","0","3472495","0 SPACEBEE-101","1 48884U 21059F   22150.31716825  .00008445  00000-0  45062-3 0  9993","2 48884  97.5525 279.9864 0009028 164.1196 196.0321 15.15364796 51183","2021-059F","48884","6898.008","95.027","526.101","513.646","0"
"GENERATED VIA SPACETRACK.ORG API","18 SPCS","48884","SPACEBEE-101","PAYLOAD","U","21059F","2022-05-31 20:03:42","348384","15.1538857","0.0009177","97.5532","281.4957","159.1141","201.0468","0","999","5141","0.00039505","0.000074","0","3474291","0 SPACEBEE-101","1 48884U 21059F   22151.83590681  .00007400  00000-0  39505-3 0  9996","2 48884  97.5532 281.4957 0009177 159.1141 201.0468 15.15388570 51412","2021-059F","48884","6897.936","95.025","526.131","513.471","0"
"GENERATED VIA SPACETRACK.ORG API","18 SPCS","48884","SPACEBEE-101","PAYLOAD","U","21059F","2022-05-31 20:03:42","348384","15.1538857","0.0009177","97.5532","281.4957","159.1141","201.0468","0","999","5141","0.00039505","0.000074","0","3474670","0 SPACEBEE-101","1 48884U 21059F   22151.83590681  .00007400  00000-0  39505-3 0  9996","2 48884  97.5532 281.4957 0009177 159.1141 201.0468 15.15388570 51412","2021-059F","48884","6897.936","95.025","526.131","513.471","0"
"GENERATED VIA SPACETRACK.ORG API","18 SPCS","48884","SPACEBEE-101","PAYLOAD","U","21059F","2022-06-01 19:49:58","931328","15.15401416","0.0009241","97.5538","282.4801","155.5412","204.626","0","999","5156","0.00032227","0.00006025","0","3476255","0 SPACEBEE-101","1 48884U 21059F   22152.82637652  .00006025  00000-0  32227-3 0  9992","2 48884  97.5538 282.4801 0009241 155.5412 204.6260 15.15401416 51560","2021-059F","48884","6897.897","95.024","526.137","513.388","0"
"GENERATED VIA SPACETRACK.ORG API","18 SPCS","48884","SPACEBEE-101","PAYLOAD","U","21059F","2022-06-02 08:30:39","478176","15.15407209","0.0009329","97.5537","283.0053","153.7038","206.467","0","999","5164","0.00027952","0.00005217","0","3477037","0 SPACEBEE-101","1 48884U 21059F   22153.35462359  .00005217  00000-0  27952-3 0  9992","2 48884  97.5537 283.0053 0009329 153.7038 206.4670 15.15407209 51646","2021-059F","48884","6897.880","95.024","526.180","513.310","0"
"GENERATED VIA SPACETRACK.ORG API","18 SPCS","48884","SPACEBEE-101","PAYLOAD","U","21059F","2022-06-02 08:30:39","478176","15.15407209","0.0009329","97.5537","283.0053","153.7038","206.467","0","999","5164","0.00027952","0.00005217","0","3477482","0 SPACEBEE-101","1 48884U 21059F   22153.35462359  .00005217  00000-0  27952-3 0  9992","2 48884  97.5537 283.0053 0009329 153.7038 206.4670 15.15407209 51646","2021-059F","48884","6897.880","95.024","526.180","513.310","0"
